STARLINK-32290          
1 60359U 24138E   26088.09262641  .00002454  00000+0  94943-4 0  9992
2 60359  53.1598 219.8113 0000249 255.8517 104.2456 15.30201203 74627
STARLINK-32275          
1 60360U 24138F   26088.06309654 -.00002042  00000+0 -56871-4 0  9990
2 60360  53.1593 219.6241 0001287  89.5543 270.5605 15.30174319 93595
STARLINK-32227          
1 60361U 24138G   26088.08629675  .00002567  00000+0  98775-4 0  9990
2 60361  53.1597 219.7577 0001036  71.1831 288.9282 15.30189817 93607
STARLINK-32256          
1 60362U 24138H   26088.09157924  .00002599  00000+0  99862-4 0  9998
2 60362  53.1588 219.7892 0001282  99.1783 260.9363 15.30193755 93580
STARLINK-32267          
1 60363U 24138J   26088.08102506  .00001723  00000+0  70289-4 0  9994
2 60363  53.1606 219.7341 0001160  86.7223 273.3910 15.30195824 93593
STARLINK-32270          
1 60364U 24138K   26088.07258159  .00000890  00000+0  42182-4 0  9995
2 60364  53.1591 219.6820 0000820  99.3707 260.7387 15.30185862 93495
STARLINK-32188          
1 60365U 24138L   26088.06625068  .00000068  00000+0  14424-4 0  9997
2 60365  53.1600 219.6418 0000733 103.0820 257.0262 15.30192210 93599
STARLINK-32230          
1 60366U 24138M   26087.68702360  .00001248  00000+0  54270-4 0  9990
2 60366  53.1609 221.5422 0000958  86.4633 273.6477 15.30189365 93534
STARLINK-32243          
1 60367U 24138N   26088.06836616  .00009067  00000+0  31790-3 0  9994
2 60367  53.1599 219.6529 0001066  94.0398 266.0724 15.30198716 93590
STARLINK-32271          
1 60368U 24138P   26088.08841948 -.00001920  00000+0 -52763-4 0  9997
2 60368  53.1596 219.7848 0000987  56.8502 303.2593 15.30178101 93591
STARLINK-32220          
1 60370U 24138R   26087.74811625  .00000541  00000+0  30376-4 0  9993
2 60370  53.1609 221.2089 0000963  98.4983 261.6127 15.30193634 93546
STARLINK-32263          
1 60371U 24138S   26087.77334079 -.00000855  00000+0 -16740-4 0  9999
2 60371  53.1602 220.6595 0001324  74.9308 285.1840 15.30179916 93457
STARLINK-32268          
1 60372U 24138T   26088.08946392  .00003660  00000+0  13562-3 0  9995
2 60372  53.1598 219.7855 0000615 110.7050 249.4017 15.30196509 93596
STARLINK-32223          
1 60373U 24138U   26087.74284123  .00001073  00000+0  48353-4 0  9998
2 60373  53.1598 221.1784 0000897 120.8591 239.2499 15.30195652 93442
STARLINK-32180          
1 60374U 24138V   26088.07152804  .00000524  00000+0  29828-4 0  9992
2 60374  53.1590 219.6727 0000881  94.7426 265.3675 15.30183367 93595
STARLINK-32281          
1 60375U 24138W   26087.65220326  .00001104  00000+0  49382-4 0  9993
2 60375  53.1601 221.3224 0000863  49.7257 310.3819 15.30191946 93439
STARLINK-32277          
1 60376U 24138X   26087.75127492 -.00004360  00000+0 -13508-3 0  9994
2 60376  53.1611 221.2273 0001200 111.3432 248.7697 15.30217394 93547
