[{"OBJECT_NAME":"STARLINK-32290","OBJECT_ID":"2024-138E","EPOCH":"2026-03-29T02:13:22.921824","MEAN_MOTION":15.30201203,"ECCENTRICITY":2.49e-5,"INCLINATION":53.1598,"RA_OF_ASC_NODE":219.8113,"ARG_OF_PERICENTER":255.8517,"MEAN_ANOMALY":104.2456,"EPHEMERIS_TYPE":0,"CLASSIFICATION_TYPE":"U","NORAD_CAT_ID":60359,"ELEMENT_SET_NO":999,"REV_AT_EPOCH":7462,"BSTAR":9.4943e-5,"MEAN_MOTION_DOT":2.454e-5,"MEAN_MOTION_DDOT":0},{"OBJECT_NAME":"STARLINK-32275","OBJECT_ID":"2024-138F","EPOCH":"2026-03-29T01:30:51.541056","MEAN_MOTION":15.30174319,"ECCENTRICITY":0.0001287,"INCLINATION":53.1593,"RA_OF_ASC_NODE":219.6241,"ARG_OF_PERICENTER":89.5543,"MEAN_ANOMALY":270.5605,"EPHEMERIS_TYPE":0,"CLASSIFICATION_TYPE":"U","NORAD_CAT_ID":60360,"ELEMENT_SET_NO":999,"REV_AT_EPOCH":9359,"BSTAR":-5.6871e-5,"MEAN_MOTION_DOT":-2.042e-5,"MEAN_MOTION_DDOT":0},{"OBJECT_NAME":"STARLINK-32227","OBJECT_ID":"2024-138G","EPOCH":"2026-03-29T02:04:16.039200","MEAN_MOTION":15.30189817,"ECCENTRICITY":0.0001036,"INCLINATION":53.1597,"RA_OF_ASC_NODE":219.7577,"ARG_OF_PERICENTER":71.1831,"MEAN_ANOMALY":288.9282,"EPHEMERIS_TYPE":0,"CLASSIFICATION_TYPE":"U","NORAD_CAT_ID":60361,"ELEMENT_SET_NO":999,"REV_AT_EPOCH":9360,"BSTAR":9.8775e-5,"MEAN_MOTION_DOT":2.567e-5,"MEAN_MOTION_DDOT":0},{"OBJECT_NAME":"STARLINK-32256","OBJECT_ID":"2024-138H","EPOCH":"2026-03-29T02:11:52.446336","MEAN_MOTION":15.30193755,"ECCENTRICITY":0.0001282,"INCLINATION":53.1588,"RA_OF_ASC_NODE":219.7892,"ARG_OF_PERICENTER":99.1783,"MEAN_ANOMALY":260.9363,"EPHEMERIS_TYPE":0,"CLASSIFICATION_TYPE":"U","NORAD_CAT_ID":60362,"ELEMENT_SET_NO":999,"REV_AT_EPOCH":9358,"BSTAR":9.9862e-5,"MEAN_MOTION_DOT":2.599e-5,"MEAN_MOTION_DDOT":0},{"OBJECT_NAME":"STARLINK-32267","OBJECT_ID":"2024-138J","EPOCH":"2026-03-29T01:56:40.565184","MEAN_MOTION":15.30195824,"ECCENTRICITY":0.000116,"INCLINATION":53.1606,"RA_OF_ASC_NODE":219.7341,"ARG_OF_PERICENTER":86.7223,"MEAN_ANOMALY":273.391,"EPHEMERIS_TYPE":0,"CLASSIFICATION_TYPE":"U","NORAD_CAT_ID":60363,"ELEMENT_SET_NO":999,"REV_AT_EPOCH":9359,"BSTAR":7.0289e-5,"MEAN_MOTION_DOT":1.723e-5,"MEAN_MOTION_DDOT":0},{"OBJECT_NAME":"STARLINK-32270","OBJECT_ID":"2024-138K","EPOCH":"2026-03-29T01:44:31.049376","MEAN_MOTION":15.30185862,"ECCENTRICITY":8.2e-5,"INCLINATION":53.1591,"RA_OF_ASC_NODE":219.682,"ARG_OF_PERICENTER":99.3707,"MEAN_ANOMALY":260.7387,"EPHEMERIS_TYPE":0,"CLASSIFICATION_TYPE":"U","NORAD_CAT_ID":60364,"ELEMENT_SET_NO":999,"REV_AT_EPOCH":9349,"BSTAR":4.2182e-5,"MEAN_MOTION_DOT":8.9e-6,"MEAN_MOTION_DDOT":0},{"OBJECT_NAME":"STARLINK-32188","OBJECT_ID":"2024-138L","EPOCH":"2026-03-29T01:35:24.058752","MEAN_MOTION":15.3019221,"ECCENTRICITY":7.33e-5,"INCLINATION":53.16,"RA_OF_ASC_NODE":219.6418,"ARG_OF_PERICENTER":103.082,"MEAN_ANOMALY":257.0262,"EPHEMERIS_TYPE":0,"CLASSIFICATION_TYPE":"U","NORAD_CAT_ID":60365,"ELEMENT_SET_NO":999,"REV_AT_EPOCH":9359,"BSTAR":1.4424e-5,"MEAN_MOTION_DOT":6.8e-7,"MEAN_MOTION_DDOT":0},{"OBJECT_NAME":"STARLINK-32230","OBJECT_ID":"2024-138M","EPOCH":"2026-03-28T16:29:18.839040","MEAN_MOTION":15.30189365,"ECCENTRICITY":9.58e-5,"INCLINATION":53.1609,"RA_OF_ASC_NODE":221.5422,"ARG_OF_PERICENTER":86.4633,"MEAN_ANOMALY":273.6477,"EPHEMERIS_TYPE":0,"CLASSIFICATION_TYPE":"U","NORAD_CAT_ID":60366,"ELEMENT_SET_NO":999,"REV_AT_EPOCH":9353,"BSTAR":5.427e-5,"MEAN_MOTION_DOT":1.248e-5,"MEAN_MOTION_DDOT":0},{"OBJECT_NAME":"STARLINK-32243","OBJECT_ID":"2024-138N","EPOCH":"2026-03-29T01:38:26.836224","MEAN_MOTION":15.30198716,"ECCENTRICITY":0.0001066,"INCLINATION":53.1599,"RA_OF_ASC_NODE":219.6529,"ARG_OF_PERICENTER":94.0398,"MEAN_ANOMALY":266.0724,"EPHEMERIS_TYPE":0,"CLASSIFICATION_TYPE":"U","NORAD_CAT_ID":60367,"ELEMENT_SET_NO":999,"REV_AT_EPOCH":9359,"BSTAR":0.0003179,"MEAN_MOTION_DOT":9.067e-5,"MEAN_MOTION_DDOT":0},{"OBJECT_NAME":"STARLINK-32271","OBJECT_ID":"2024-138P","EPOCH":"2026-03-29T02:07:19.443072","MEAN_MOTION":15.30178101,"ECCENTRICITY":9.87e-5,"INCLINATION":53.1596,"RA_OF_ASC_NODE":219.7848,"ARG_OF_PERICENTER":56.8502,"MEAN_ANOMALY":303.2593,"EPHEMERIS_TYPE":0,"CLASSIFICATION_TYPE":"U","NORAD_CAT_ID":60368,"ELEMENT_SET_NO":999,"REV_AT_EPOCH":9359,"BSTAR":-5.2763e-5,"MEAN_MOTION_DOT":-1.92e-5,"MEAN_MOTION_DDOT":0},{"OBJECT_NAME":"STARLINK-32220","OBJECT_ID":"2024-138R","EPOCH":"2026-03-28T17:57:17.244000","MEAN_MOTION":15.30193634,"ECCENTRICITY":9.63e-5,"INCLINATION":53.1609,"RA_OF_ASC_NODE":221.2089,"ARG_OF_PERICENTER":98.4983,"MEAN_ANOMALY":261.6127,"EPHEMERIS_TYPE":0,"CLASSIFICATION_TYPE":"U","NORAD_CAT_ID":60370,"ELEMENT_SET_NO":999,"REV_AT_EPOCH":9354,"BSTAR":3.0376373e-5,"MEAN_MOTION_DOT":5.41e-6,"MEAN_MOTION_DDOT":0},{"OBJECT_NAME":"STARLINK-32263","OBJECT_ID":"2024-138S","EPOCH":"2026-03-28T18:33:36.644256","MEAN_MOTION":15.30179916,"ECCENTRICITY":0.0001324,"INCLINATION":53.1602,"RA_OF_ASC_NODE":220.6595,"ARG_OF_PERICENTER":74.9308,"MEAN_ANOMALY":285.184,"EPHEMERIS_TYPE":0,"CLASSIFICATION_TYPE":"U","NORAD_CAT_ID":60371,"ELEMENT_SET_NO":999,"REV_AT_EPOCH":9345,"BSTAR":-1.6740212e-5,"MEAN_MOTION_DOT":-8.55e-6,"MEAN_MOTION_DDOT":0},{"OBJECT_NAME":"STARLINK-32268","OBJECT_ID":"2024-138T","EPOCH":"2026-03-29T02:08:49.682688","MEAN_MOTION":15.30196509,"ECCENTRICITY":6.15e-5,"INCLINATION":53.1598,"RA_OF_ASC_NODE":219.7855,"ARG_OF_PERICENTER":110.705,"MEAN_ANOMALY":249.4017,"EPHEMERIS_TYPE":0,"CLASSIFICATION_TYPE":"U","NORAD_CAT_ID":60372,"ELEMENT_SET_NO":999,"REV_AT_EPOCH":9359,"BSTAR":0.00013562,"MEAN_MOTION_DOT":3.66e-5,"MEAN_MOTION_DDOT":0},{"OBJECT_NAME":"STARLINK-32223","OBJECT_ID":"2024-138U","EPOCH":"2026-03-28T17:49:41.482272","MEAN_MOTION":15.30195652,"ECCENTRICITY":8.977e-5,"INCLINATION":53.1598,"RA_OF_ASC_NODE":221.1784,"ARG_OF_PERICENTER":120.8591,"MEAN_ANOMALY":239.2499,"EPHEMERIS_TYPE":0,"CLASSIFICATION_TYPE":"U","NORAD_CAT_ID":60373,"ELEMENT_SET_NO":999,"REV_AT_EPOCH":9344,"BSTAR":4.8352598e-5,"MEAN_MOTION_DOT":1.073e-5,"MEAN_MOTION_DDOT":0},{"OBJECT_NAME":"STARLINK-32180","OBJECT_ID":"2024-138V","EPOCH":"2026-03-29T01:43:00.022656","MEAN_MOTION":15.30183367,"ECCENTRICITY":8.81e-5,"INCLINATION":53.159,"RA_OF_ASC_NODE":219.6727,"ARG_OF_PERICENTER":94.7426,"MEAN_ANOMALY":265.3675,"EPHEMERIS_TYPE":0,"CLASSIFICATION_TYPE":"U","NORAD_CAT_ID":60374,"ELEMENT_SET_NO":999,"REV_AT_EPOCH":9359,"BSTAR":2.9828e-5,"MEAN_MOTION_DOT":5.24e-6,"MEAN_MOTION_DDOT":0},{"OBJECT_NAME":"STARLINK-32281","OBJECT_ID":"2024-138W","EPOCH":"2026-03-28T15:39:10.361664","MEAN_MOTION":15.30191946,"ECCENTRICITY":8.63e-5,"INCLINATION":53.1601,"RA_OF_ASC_NODE":221.3224,"ARG_OF_PERICENTER":49.7257,"MEAN_ANOMALY":310.3819,"EPHEMERIS_TYPE":0,"CLASSIFICATION_TYPE":"U","NORAD_CAT_ID":60375,"ELEMENT_SET_NO":999,"REV_AT_EPOCH":9343,"BSTAR":4.9382e-5,"MEAN_MOTION_DOT":1.104e-5,"MEAN_MOTION_DDOT":0},{"OBJECT_NAME":"STARLINK-32277","OBJECT_ID":"2024-138X","EPOCH":"2026-03-28T18:01:50.153088","MEAN_MOTION":15.30217394,"ECCENTRICITY":0.00012009,"INCLINATION":53.1611,"RA_OF_ASC_NODE":221.2273,"ARG_OF_PERICENTER":111.3432,"MEAN_ANOMALY":248.7697,"EPHEMERIS_TYPE":0,"CLASSIFICATION_TYPE":"U","NORAD_CAT_ID":60376,"ELEMENT_SET_NO":999,"REV_AT_EPOCH":9354,"BSTAR":-0.00013508331,"MEAN_MOTION_DOT":-4.36e-5,"MEAN_MOTION_DDOT":0}]
